{"type": "FeatureCollection", "features": [ {"type": "Feature", "properties": {"norad_id": 34014, "name": "COSMOS 2251 DEB", "group": "cosmos-2251-debris", "lat": -35.00130766229669, "lon": 84.60614679931199, "alt_km": 682.687814223359, "timestamp": "2025-12-26T22:28:06.178872+00:00", "meta": {"OBJECT_NAME": "COSMOS 2251 DEB", "OBJECT_ID": "1993-036GZ", "EPOCH": "2025-12-26T18:28:58.113120", "MEAN_MOTION": 14.73302986, "ECCENTRICITY": 0.0037664, "INCLINATION": 74.0163, "RA_OF_ASC_NODE": 253.3516, "ARG_OF_PERICENTER": 29.1385, "MEAN_ANOMALY": 27.0254, "EPHEMERIS_TYPE": 0, "CLASSIFICATION_TYPE": "U", "NORAD_CAT_ID": 34014, "ELEMENT_SET_NO": 999, "REV_AT_EPOCH": 89510, "BSTAR": 0.00094946, "MEAN_MOTION_DOT": 6.183e-05, "MEAN_MOTION_DDOT": 0}, "tle": {"line1": "1 34014U 93036GZ  25360.77011705  .00006183  00000+0  94946-3 0  9999", "line2": "2 34014  74.0163 253.3516 0037664  29.1385  27.0254 14.73302986895100"}}, "geometry": {"type": "Point", "coordinates": [84.60614679931199, -35.00130766229669]}}, {"type": "Feature", "properties": {"norad_id": 34015, "name": "COSMOS 2251 DEB", "group": "cosmos-2251-debris", "lat": 33.48580987027694, "lon": 143.22550456891346, "alt_km": 703.6885104084249, "timestamp": "2025-12-26T22:28:06.178882+00:00", "meta": {"OBJECT_NAME": "COSMOS 2251 DEB", "OBJECT_ID": "1993-036HA", "EPOCH": "2025-12-26T17:52:28.889184", "MEAN_MOTION": 14.6041601, "ECCENTRICITY": 0.0020818, "INCLINATION": 74.0242, "RA_OF_ASC_NODE": 132.6667, "ARG_OF_PERICENTER": 229.246, "MEAN_ANOMALY": 239.9192, "EPHEMERIS_TYPE": 0, "CLASSIFICATION_TYPE": "U", "NORAD_CAT_ID": 34015, "ELEMENT_SET_NO": 999, "REV_AT_EPOCH": 88735, "BSTAR": 0.0011893, "MEAN_MOTION_DOT": 5.752e-05, "MEAN_MOTION_DDOT": 0}, "tle": {"line1": "1 34015U 93036HA  25360.74477881  .00005752  00000+0  11893-2 0  9998", "line2": "2 34015  74.0242 132.6667 0020818 229.2460 239.9192 14.60416010887358"}}, "geometry": {"type": "Point", "coordinates": [143.22550456891346, 33.48580987027694]}}, {"type": "Feature", "properties": {"norad_id": 34018, "name": "COSMOS 2251 DEB", "group": "cosmos-2251-debris", "lat": 73.86813845142287, "lon": 158.48618366943742, "alt_km": 762.9576703842959, "timestamp": "2025-12-26T22:28:06.178893+00:00", "meta": {"OBJECT_NAME": "COSMOS 2251 DEB", "OBJECT_ID": "1993-036HD", "EPOCH": "2025-12-26T15:39:15.354720", "MEAN_MOTION": 13.81086806, "ECCENTRICITY": 0.0263057, "INCLINATION": 73.878, "RA_OF_ASC_NODE": 68.5198, "ARG_OF_PERICENTER": 101.7277, "MEAN_ANOMALY": 17.8642, "EPHEMERIS_TYPE": 0, "CLASSIFICATION_TYPE": "U", "NORAD_CAT_ID": 34018, "ELEMENT_SET_NO": 999, "REV_AT_EPOCH": 84849, "BSTAR": 0.00034677, "MEAN_MOTION_DOT": 4.55e-06, "MEAN_MOTION_DDOT": 0}, "tle": {"line1": "1 34018U 93036HD  25360.65226105  .00000455  00000+0  34677-3 0  9993", "line2": "2 34018  73.8780  68.5198 0263057 101.7277  17.8642 13.81086806848498"}}, "geometry": {"type": "Point", "coordinates": [158.48618366943742, 73.86813845142287]}}, {"type": "Feature", "properties": {"norad_id": 34019, "name": "COSMOS 2251 DEB", "group": "cosmos-2251-debris", "lat": 34.38526354180756, "lon": 35.98921597212087, "alt_km": 819.1749129107493, "timestamp": "2025-12-26T22:28:06.178904+00:00", "meta": {"OBJECT_NAME": "COSMOS 2251 DEB", "OBJECT_ID": "1993-036HE", "EPOCH": "2025-12-26T12:48:45.326016", "MEAN_MOTION": 14.33996638, "ECCENTRICITY": 0.0062078, "INCLINATION": 73.9542, "RA_OF_ASC_NODE": 25.3702, "ARG_OF_PERICENTER": 204.4765, "MEAN_ANOMALY": 275.6286, "EPHEMERIS_TYPE": 0, "CLASSIFICATION_TYPE": "U", "NORAD_CAT_ID": 34019, "ELEMENT_SET_NO": 999, "REV_AT_EPOCH": 87718, "BSTAR": 0.00074573, "MEAN_MOTION_DOT": 2.101e-05, "MEAN_MOTION_DDOT": 0}, "tle": {"line1": "1 34019U 93036HE  25360.53385794  .00002101  00000+0  74573-3 0  9990", "line2": "2 34019  73.9542  25.3702 0062078 204.4765 275.6286 14.33996638877188"}}, "geometry": {"type": "Point", "coordinates": [35.98921597212087, 34.38526354180756]}}, {"type": "Feature", "properties": {"norad_id": 34021, "name": "COSMOS 2251 DEB", "group": "cosmos-2251-debris", "lat": -49.62866332704361, "lon": -57.15217406316219, "alt_km": 717.7033938782306, "timestamp": "2025-12-26T22:28:06.178914+00:00", "meta": {"OBJECT_NAME": "COSMOS 2251 DEB", "OBJECT_ID": "1993-036HG", "EPOCH": "2025-12-26T17:01:37.109856", "MEAN_MOTION": 14.49998222, "ECCENTRICITY": 0.0020965, "INCLINATION": 74.0362, "RA_OF_ASC_NODE": 103.5985, "ARG_OF_PERICENTER": 246.3926, "MEAN_ANOMALY": 242.9803, "EPHEMERIS_TYPE": 0, "CLASSIFICATION_TYPE": "U", "NORAD_CAT_ID": 34021, "ELEMENT_SET_NO": 999, "REV_AT_EPOCH": 88832, "BSTAR": 0.00051295, "MEAN_MOTION_DOT": 1.965e-05, "MEAN_MOTION_DDOT": 0}, "tle": {"line1": "1 34021U 93036HG  25360.70945729  .00001965  00000+0  51295-3 0  9995", "line2": "2 34021  74.0362 103.5985 0020965 246.3926 242.9803 14.49998222888326"}}, "geometry": {"type": "Point", "coordinates": [-57.15217406316219, -49.62866332704361]}}, {"type": "Feature", "properties": {"norad_id": 34022, "name": "COSMOS 2251 DEB", "group": "cosmos-2251-debris", "lat": -25.747578057939805, "lon": 72.56383608777136, "alt_km": 770.1272218484783, "timestamp": "2025-12-26T22:28:06.178925+00:00", "meta": {"OBJECT_NAME": "COSMOS 2251 DEB", "OBJECT_ID": "1993-036HH", "EPOCH": "2025-12-26T03:52:05.044800", "MEAN_MOTION": 14.38981592, "ECCENTRICITY": 0.00230906, "INCLINATION": 74.0534, "RA_OF_ASC_NODE": 246.0652, "ARG_OF_PERICENTER": 308.9146, "MEAN_ANOMALY": 204.8914, "EPHEMERIS_TYPE": 0, "CLASSIFICATION_TYPE": "U", "NORAD_CAT_ID": 34022, "ELEMENT_SET_NO": 999, "REV_AT_EPOCH": 88388, "BSTAR": 0.00019100519, "MEAN_MOTION_DOT": 5.65e-06, "MEAN_MOTION_DDOT": 0}, "tle": {"line1": "1 34022U 93036HH  25360.16116950  .00000565  00000+0  19101-3 0  9997", "line2": "2 34022  74.0534 246.0652 0023090 308.9146 204.8914 14.38981592883889"}}, "geometry": {"type": "Point", "coordinates": [72.56383608777136, -25.747578057939805]}}, {"type": "Feature", "properties": {"norad_id": 34023, "name": "COSMOS 2251 DEB", "group": "cosmos-2251-debris", "lat": -26.988715637611854, "lon": 53.860248791859085, "alt_km": 766.7768370443409, "timestamp": "2025-12-26T22:28:06.178935+00:00", "meta": {"OBJECT_NAME": "COSMOS 2251 DEB", "OBJECT_ID": "1993-036HJ", "EPOCH": "2025-12-26T16:46:04.852128", "MEAN_MOTION": 14.40587211, "ECCENTRICITY": 0.0018953, "INCLINATION": 74.0235, "RA_OF_ASC_NODE": 225.9102, "ARG_OF_PERICENTER": 319.6392, "MEAN_ANOMALY": 97.3409, "EPHEMERIS_TYPE": 0, "CLASSIFICATION_TYPE": "U", "NORAD_CAT_ID": 34023, "ELEMENT_SET_NO": 999, "REV_AT_EPOCH": 88415, "BSTAR": 0.00026943, "MEAN_MOTION_DOT": 8.34e-06, "MEAN_MOTION_DDOT": 0}, "tle": {"line1": "1 34023U 93036HJ  25360.69866727  .00000834  00000+0  26943-3 0  9991", "line2": "2 34023  74.0235 225.9102 0018953 319.6392  97.3409 14.40587211884156"}}, "geometry": {"type": "Point", "coordinates": [53.860248791859085, -26.988715637611854]}}, {"type": "Feature", "properties": {"norad_id": 34024, "name": "COSMOS 2251 DEB", "group": "cosmos-2251-debris", "lat": -44.25753920792421, "lon": -86.2105968360942, "alt_km": 765.9175243524314, "timestamp": "2025-12-26T22:28:06.178946+00:00", "meta": {"OBJECT_NAME": "COSMOS 2251 DEB", "OBJECT_ID": "1993-036HK", "EPOCH": "2025-12-26T13:28:27.946848", "MEAN_MOTION": 14.3541169, "ECCENTRICITY": 0.0021632, "INCLINATION": 74.0471, "RA_OF_ASC_NODE": 290.6599, "ARG_OF_PERICENTER": 338.5512, "MEAN_ANOMALY": 199.3687, "EPHEMERIS_TYPE": 0, "CLASSIFICATION_TYPE": "U", "NORAD_CAT_ID": 34024, "ELEMENT_SET_NO": 999, "REV_AT_EPOCH": 88222, "BSTAR": 0.00020825, "MEAN_MOTION_DOT": 5.73e-06, "MEAN_MOTION_DDOT": 0}, "tle": {"line1": "1 34024U 93036HK  25360.56143457  .00000573  00000+0  20825-3 0  9999", "line2": "2 34024  74.0471 290.6599 0021632 338.5512 199.3687 14.35411690882228"}}, "geometry": {"type": "Point", "coordinates": [-86.2105968360942, -44.25753920792421]}}, {"type": "Feature", "properties": {"norad_id": 34026, "name": "COSMOS 2251 DEB", "group": "cosmos-2251-debris", "lat": -42.547814590580074, "lon": 149.18902440858722, "alt_km": 829.9490665567819, "timestamp": "2025-12-26T22:28:06.178956+00:00", "meta": {"OBJECT_NAME": "COSMOS 2251 DEB", "OBJECT_ID": "1993-036HM", "EPOCH": "2025-12-25T00:00:06.887808", "MEAN_MOTION": 13.65323017, "ECCENTRICITY": 0.0349583, "INCLINATION": 73.7668, "RA_OF_ASC_NODE": 316.8973, "ARG_OF_PERICENTER": 185.0257, "MEAN_ANOMALY": 244.2207, "EPHEMERIS_TYPE": 0, "CLASSIFICATION_TYPE": "U", "NORAD_CAT_ID": 34026, "ELEMENT_SET_NO": 999, "REV_AT_EPOCH": 83699, "BSTAR": 0.00042875556, "MEAN_MOTION_DOT": 5.06e-06, "MEAN_MOTION_DDOT": 0}, "tle": {"line1": "1 34026U 93036HM  25359.00007972  .00000506  00000+0  42876-3 0  9995", "line2": "2 34026  73.7668 316.8973 0349583 185.0257 244.2207 13.65323017836998"}}, "geometry": {"type": "Point", "coordinates": [149.18902440858722, -42.547814590580074]}}, {"type": "Feature", "properties": {"norad_id": 34028, "name": "COSMOS 2251 DEB", "group": "cosmos-2251-debris", "lat": 58.40857697416028, "lon": 117.44506970335243, "alt_km": 780.7117873509442, "timestamp": "2025-12-26T22:28:06.178968+00:00", "meta": {"OBJECT_NAME": "COSMOS 2251 DEB", "OBJECT_ID": "1993-036HP", "EPOCH": "2025-12-26T15:29:28.398048", "MEAN_MOTION": 13.20635105, "ECCENTRICITY": 0.0543459, "INCLINATION": 73.884, "RA_OF_ASC_NODE": 325.9309, "ARG_OF_PERICENTER": 101.3862, "MEAN_ANOMALY": 72.7458, "EPHEMERIS_TYPE": 0, "CLASSIFICATION_TYPE": "U", "NORAD_CAT_ID": 34028, "ELEMENT_SET_NO": 999, "REV_AT_EPOCH": 81191, "BSTAR": 0.00061228, "MEAN_MOTION_DOT": 5.24e-06, "MEAN_MOTION_DDOT": 0}, "tle": {"line1": "1 34028U 93036HP  25360.64546757  .00000524  00000+0  61228-3 0  9990", "line2": "2 34028  73.8840 325.9309 0543459 101.3862  72.7458 13.20635105811910"}}, "geometry": {"type": "Point", "coordinates": [117.44506970335243, 58.40857697416028]}}]}